NORAD_CAT_ID,OBJECT_NAME,OBJECT_TYPE,EPOCH,MEAN_MOTION,ECCENTRICITY,INCLINATION,RA_OF_ASC_NODE,ARG_OF_PERICENTER,MEAN_ANOMALY,BSTAR,MEAN_MOTION_DOT,MEAN_MOTION_DDOT,TLE_LINE0,TLE_LINE1,TLE_LINE2,SEMIMAJOR_AXIS,PERIOD,APOGEE,PERIGEE,DECAYED
53276.0,STARLINK-4174,PAYLOAD,2023-06-14 12:49:21,15.08831454,0.0001013,53.2175,349.5017,93.7181,266.3927,1.7139e-05,-1.5e-07,0.0,0 STARLINK-4174,1 53276U 22086AL  23165.53427092 -.00000015  00000-0  17139-4 0  9992,2 53276  53.2175 349.5017 0001013  93.7181 266.3927 15.08831454 50358,6917.907,95.438,540.472,539.071,0.0
53276.0,STARLINK-4174,PAYLOAD,2023-06-14 20:46:16,15.08839194,9.88e-05,53.2184,348.0176,96.0967,264.0138,3.774e-05,3.13e-06,0.0,0 STARLINK-4174,1 53276U 22086AL  23165.86546620  .00000313  00000-0  37740-4 0  9997,2 53276  53.2184 348.0176 0000988  96.0967 264.0138 15.08839194 50400,6917.883,95.438,540.431,539.064,0.0
53276.0,STARLINK-4174,PAYLOAD,2023-06-14 22:21:39,15.08841,9.82e-05,53.218,347.7192,94.9012,265.2092,5.3246e-05,5.6e-06,0.0,0 STARLINK-4174,1 53276U 22086AL  23165.93170463  .00000560  00000-0  53246-4 0  9996,2 53276  53.2180 347.7192 0000982  94.9012 265.2092 15.08841000 50245,6917.877,95.437,540.422,539.063,0.0
53276.0,STARLINK-4174,PAYLOAD,2023-06-15 12:40:07,15.088351,0.0001066,53.2174,345.0432,103.0561,257.055,4.7942e-05,4.75e-06,0.0,0 STARLINK-4174,1 53276U 22086AL  23166.52787022  .00000475  00000-0  47942-4 0  9998,2 53276  53.2174 345.0432 0001066 103.0561 257.0550 15.08835100 50502,6917.895,95.438,540.498,539.023,0.0
53276.0,STARLINK-4174,PAYLOAD,2023-06-15 19:01:40,15.08838736,0.0001005,53.2179,343.8542,103.3396,256.7708,8.8567e-05,1.122e-05,0.0,0 STARLINK-4174,1 53276U 22086AL  23166.79282770  .00001122  00000-0  88567-4 0  9995,2 53276  53.2179 343.8542 0001005 103.3396 256.7708 15.08838736 50540,6917.884,95.438,540.444,539.054,0.0
53276.0,STARLINK-4174,PAYLOAD,2023-06-16 10:55:31,15.08840529,8.84e-05,53.2173,340.8796,96.4609,263.6483,0.0001612,2.279e-05,0.0,0 STARLINK-4174,1 53276U 22086AL  23167.45522625  .00002279  00000-0  16120-3 0  9994,2 53276  53.2173 340.8796 0000884  96.4609 263.6483 15.08840529 50477,6917.879,95.438,540.355,539.132,0.0
53276.0,STARLINK-4174,PAYLOAD,2023-06-16 12:30:54,15.08843324,9.21e-05,53.2165,340.5821,95.6686,264.4411,0.00011867,1.602e-05,0.0,0 STARLINK-4174,1 53276U 22086AL  23167.52146494  .00001602  00000-0  11867-3 0  9990,2 53276  53.2165 340.5821 0000921  95.6686 264.4411 15.08843324 50658,6917.87,95.437,540.372,539.098,0.0
53276.0,STARLINK-4174,PAYLOAD,2023-06-16 20:27:49,15.08853398,9.33e-05,53.2168,339.0951,95.7834,264.3265,0.00023452,3.448e-05,0.0,0 STARLINK-4174,1 53276U 22086AL  23167.85265838  .00003448  00000-0  23452-3 0  9993,2 53276  53.2168 339.0951 0000933  95.7834 264.3265 15.08853398 50701,6917.839,95.437,540.35,539.059,0.0
53276.0,STARLINK-4174,PAYLOAD,2023-06-17 10:46:18,15.08842603,0.0001322,53.2172,336.4204,78.2082,281.9058,0.00010978,1.46e-05,0.0,0 STARLINK-4174,1 53276U 22086AL  23168.44882450  .00001460  00000-0  10978-3 0  9995,2 53276  53.2172 336.4204 0001322  78.2082 281.9058 15.08842603 50625,6917.872,95.437,540.652,538.823,0.0
53276.0,STARLINK-4174,PAYLOAD,2023-06-17 12:21:42,15.0881996,0.0001037,53.2171,336.1217,81.3904,278.7206,-0.00018444,-3.22e-05,0.0,0 STARLINK-4174,1 53276U 22086AL  23168.51507730 -.00003220  00000-0 -18444-3 0  9992,2 53276  53.2171 336.1217 0001037  81.3904 278.7206 15.08819960 50805,6917.942,95.439,540.524,539.089,0.0
53276.0,STARLINK-4174,PAYLOAD,2023-06-17 18:43:15,15.08824241,9.87e-05,53.2169,334.9321,78.6842,281.4261,-0.00021147,-3.65e-05,0.0,0 STARLINK-4174,1 53276U 22086AL  23168.78003496 -.00003650  00000-0 -21147-3 0  9992,2 53276  53.2169 334.9321 0000987  78.6842 281.4261 15.08824241 50672,6917.929,95.439,540.476,539.111,0.0
53276.0,STARLINK-4174,PAYLOAD,2023-06-18 04:15:33,15.08830418,9.67e-05,53.2169,333.148,78.4931,281.6169,6.1618e-05,6.93e-06,0.0,0 STARLINK-4174,1 53276U 22086AL  23169.17747602  .00000693  00000-0  61618-4 0  9990,2 53276  53.2169 333.1480 0000967  78.4931 281.6169 15.08830418 50733,6917.91,95.438,540.444,539.106,0.0
53276.0,STARLINK-4174,PAYLOAD,2023-06-18 10:37:06,15.08834076,9.27e-05,53.2169,331.9585,75.3082,284.8013,0.00047995,7.358e-05,0.0,0 STARLINK-4174,1 53276U 22086AL  23169.44243837  .00007358  00000-0  47995-3 0  9997,2 53276  53.2169 331.9585 0000927  75.3082 284.8013 15.08834076 50944,6917.898,95.438,540.405,539.122,0.0
53276.0,STARLINK-4174,PAYLOAD,2023-06-18 16:58:39,15.08845914,8.91e-05,53.2167,330.7693,69.6995,290.4093,0.0010629,0.00016671,0.0,0 STARLINK-4174,1 53276U 22086AL  23169.70739882  .00016671  00000-0  10629-2 0  9997,2 53276  53.2167 330.7693 0000891  69.6995 290.4093 15.08845914 50818,6917.862,95.437,540.344,539.111,0.0
53276.0,STARLINK-4174,PAYLOAD,2023-06-19 04:06:20,15.08855375,8.79e-05,53.2162,328.6878,65.3359,294.7724,0.00087212,0.00013625,0.0,0 STARLINK-4174,1 53276U 22086AL  23170.17107610  .00013625  00000-0  87212-3 0  9997,2 53276  53.2162 328.6878 0000879  65.3359 294.7724 15.08855375 51054,6917.833,95.437,540.306,539.09,0.0
53276.0,STARLINK-4174,PAYLOAD,2023-06-19 16:49:25,15.08858014,9.74e-05,53.217,326.3092,64.1605,295.9487,0.00058332,9.012e-05,0.0,0 STARLINK-4174,1 53276U 22086AL  23170.70099237  .00009012  00000-0  58332-3 0  9997,2 53276  53.2170 326.3092 0000974  64.1605 295.9487 15.08858014 50964,6917.825,95.436,540.364,539.017,0.0
53276.0,STARLINK-4174,PAYLOAD,2023-06-19 18:24:48,15.08858162,9.58e-05,53.217,326.0117,64.8909,295.2182,0.00056297,8.688e-05,0.0,0 STARLINK-4174,1 53276U 22086AL  23170.76723168  .00008688  00000-0  56297-3 0  9996,2 53276  53.2170 326.0117 0000958  64.8909 295.2182 15.08858162 51145,6917.825,95.436,540.353,539.027,0.0
53276.0,STARLINK-4174,PAYLOAD,2023-06-20 03:57:07,15.08850602,0.0001228,53.2167,324.2236,98.8738,261.2394,0.00026791,3.98e-05,0.0,0 STARLINK-4174,1 53276U 22086AL  23171.16467084  .00003980  00000-0  26791-3 0  9999,2 53276  53.2167 324.2236 0001228  98.8738 261.2394 15.08850602 51038,6917.848,95.437,540.562,538.863,0.0
53276.0,STARLINK-4174,PAYLOAD,2023-06-20 10:18:40,15.08849919,0.0001114,53.2165,323.0383,84.7601,275.3518,0.00021017,3.059e-05,0.0,0 STARLINK-4174,1 53276U 22086AL  23171.42963135  .00003059  00000-0  21017-3 0  9999,2 53276  53.2165 323.0383 0001114  84.7601 275.3518 15.08849919 51249,6917.85,95.437,540.486,538.944,0.0
53276.0,STARLINK-4174,PAYLOAD,2023-06-20 19:50:58,15.08846544,0.0001021,53.2171,321.2538,89.9833,270.1276,0.00015922,2.248e-05,0.0,0 STARLINK-4174,1 53276U 22086AL  23171.82707091  .00002248  00000-0  15922-3 0  9997,2 53276  53.2171 321.2538 0001021  89.9833 270.1276 15.08846544 51301,6917.86,95.437,540.432,539.019,0.0
53276.0,STARLINK-4174,PAYLOAD,2023-06-21 10:09:27,15.08841733,0.0001199,53.2163,318.5777,85.0327,275.0802,7.4177e-05,8.93e-06,0.0,0 STARLINK-4174,1 53276U 22086AL  23172.42323318  .00000893  00000-0  74177-4 0  9992,2 53276  53.2163 318.5777 0001199  85.0327 275.0802 15.08841733 51222,6917.875,95.437,540.57,538.911,0.0
53276.0,STARLINK-4174,PAYLOAD,2023-06-21 13:20:13,15.08843001,0.0001061,53.2166,317.9819,96.7184,263.3929,7.0423e-05,8.33e-06,0.0,0 STARLINK-4174,1 53276U 22086AL  23172.55571205  .00000833  00000-0  70423-4 0  9990,2 53276  53.2166 317.9819 0001061  96.7184 263.3929 15.08843001 51414,6917.871,95.437,540.47,539.002,0.0
53276.0,STARLINK-4174,PAYLOAD,2023-06-21 16:30:59,15.08846879,9.71e-05,53.2172,317.387,98.4711,261.6391,1.5491e-05,-4.1e-07,0.0,0 STARLINK-4174,1 53276U 22086AL  23172.68818986 -.00000041  00000-0  15491-4 0  9990,2 53276  53.2172 317.3870 0000971  98.4711 261.6391 15.08846879 51438,6917.859,95.437,540.396,539.053,0.0
53276.0,STARLINK-4174,PAYLOAD,2023-06-22 10:00:14,15.08833166,9.03e-05,53.2179,314.1178,90.7493,269.3603,0.00012155,1.647e-05,0.0,0 STARLINK-4174,1 53276U 22086AL  23173.41683805  .00001647  00000-0  12155-3 0  9997,2 53276  53.2179 314.1178 0000903  90.7493 269.3603 15.08833166 51377,6917.901,95.438,540.391,539.142,0.0
53276.0,STARLINK-4174,PAYLOAD,2023-06-22 16:21:47,15.0884267,0.000104,53.2166,312.929,93.8163,266.2948,0.00016327,2.312e-05,0.0,0 STARLINK-4174,1 53276U 22086AL  23173.68179416  .00002312  00000-0  16327-3 0  9999,2 53276  53.2166 312.9290 0001040  93.8163 266.2948 15.08842670 51418,6917.872,95.437,540.457,539.018,0.0
53276.0,STARLINK-4174,PAYLOAD,2023-06-23 09:51:01,15.08838993,9.06e-05,53.2172,309.6588,103.062,257.0473,9.3214e-05,1.196e-05,0.0,0 STARLINK-4174,1 53276U 22086AL  23174.41043620  .00001196  00000-0  93214-4 0  9998,2 53276  53.2172 309.6588 0000906 103.0620 257.0473 15.08838993 51526,6917.883,95.438,540.375,539.122,0.0
53276.0,STARLINK-4174,PAYLOAD,2023-06-23 17:47:56,15.08849396,7.86e-05,53.2167,308.172,96.207,263.9011,0.00016891,2.402e-05,0.0,0 STARLINK-4174,1 53276U 22086AL  23174.74162983  .00002402  00000-0  16891-3 0  9994,2 53276  53.2167 308.1720 0000786  96.2070 263.9011 15.08849396 51578,6917.852,95.437,540.26,539.173,0.0
53276.0,STARLINK-4174,PAYLOAD,2023-06-24 01:44:53,15.08837859,0.0001068,53.2172,306.6853,91.7644,268.347,7.6334e-05,9.27e-06,0.0,0 STARLINK-4174,1 53276U 22086AL  23175.07283678  .00000927  00000-0  76334-4 0  9995,2 53276  53.2172 306.6853 0001068  91.7644 268.3470 15.08837859 51620,6917.887,95.438,540.491,539.013,0.0
53276.0,STARLINK-4174,PAYLOAD,2023-06-25 15:54:08,15.08847814,9.95e-05,53.2175,299.5468,94.8278,265.2827,0.00014026,1.946e-05,0.0,0 STARLINK-4174,1 53276U 22086AL  23176.66259394  .00001946  00000-0  14026-3 0  9990,2 53276  53.2175 299.5468 0000995  94.8278 265.2827 15.08847814 51860,6917.857,95.437,540.41,539.033,0.0
53276.0,STARLINK-4174,PAYLOAD,2023-06-26 01:26:27,15.08839213,0.0001062,53.2173,297.7637,81.3433,278.768,-8.9419e-06,-4.3e-06,0.0,0 STARLINK-4174,1 53276U 22086AL  23177.06003897 -.00000430  00000-0 -89419-5 0  9999,2 53276  53.2173 297.7637 0001062  81.3433 278.7680 15.08839213 51923,6917.883,95.438,540.482,539.013,0.0
